CCSDS_OMM_VERS = 2.0
CREATION_DATE  = 
ORIGINATOR     = 

OBJECT_NAME    = KSLV-II R/B
OBJECT_ID      = 2025-274P
CENTER_NAME    = EARTH
REF_FRAME      = TEME
TIME_SYSTEM    = UTC
MEAN_ELEMENT_THEORY = SGP/SGP4

EPOCH          = 2025-12-06T19:27:04.446432
MEAN_MOTION    = 14.97226496
ECCENTRICITY   = .00484111
INCLINATION    = 97.7412
RA_OF_ASC_NODE = 268.2109
ARG_OF_PERICENTER = 339.2416
MEAN_ANOMALY   = 20.6839

EPHEMERIS_TYPE = 0
CLASSIFICATION_TYPE = U
NORAD_CAT_ID   = 66663
ELEMENT_SET_NO = 999
REV_AT_EPOCH   = 152
BSTAR          = .53388811E-3
MEAN_MOTION_DOT = .6269E-4
MEAN_MOTION_DDOT = 0

CCSDS_OMM_VERS = 2.0
CREATION_DATE  = 
ORIGINATOR     = 

OBJECT_NAME    = SOYUZ-MS 28
OBJECT_ID      = 2025-275A
CENTER_NAME    = EARTH
REF_FRAME      = TEME
TIME_SYSTEM    = UTC
MEAN_ELEMENT_THEORY = SGP/SGP4

EPOCH          = 2025-12-08T13:01:02.621280
MEAN_MOTION    = 15.49420853
ECCENTRICITY   = .0003394
INCLINATION    = 51.6307
RA_OF_ASC_NODE = 163.2617
ARG_OF_PERICENTER = 220.7658
MEAN_ANOMALY   = 139.3077

EPHEMERIS_TYPE = 0
CLASSIFICATION_TYPE = U
NORAD_CAT_ID   = 66664
ELEMENT_SET_NO = 999
REV_AT_EPOCH   = 179
BSTAR          = .23028E-3
MEAN_MOTION_DOT = .12445E-3
MEAN_MOTION_DDOT = 0

CCSDS_OMM_VERS = 2.0
CREATION_DATE  = 
ORIGINATOR     = 

OBJECT_NAME    = KOMPSAT-7
OBJECT_ID      = 2025-279A
CENTER_NAME    = EARTH
REF_FRAME      = TEME
TIME_SYSTEM    = UTC
MEAN_ELEMENT_THEORY = SGP/SGP4

EPOCH          = 2025-12-08T14:28:04.424736
MEAN_MOTION    = 14.98369604
ECCENTRICITY   = .0009431
INCLINATION    = 97.6400
RA_OF_ASC_NODE = 288.5530
ARG_OF_PERICENTER = 235.5976
MEAN_ANOMALY   = 124.4356

EPHEMERIS_TYPE = 0
CLASSIFICATION_TYPE = U
NORAD_CAT_ID   = 66820
ELEMENT_SET_NO = 999
REV_AT_EPOCH   = 103
BSTAR          = .38346512E-3
MEAN_MOTION_DOT = .4517E-4
MEAN_MOTION_DDOT = 0

CCSDS_OMM_VERS = 2.0
CREATION_DATE  = 
ORIGINATOR     = 

OBJECT_NAME    = ZQ-3 R/B
OBJECT_ID      = 2025-282A
CENTER_NAME    = EARTH
REF_FRAME      = TEME
TIME_SYSTEM    = UTC
MEAN_ELEMENT_THEORY = SGP/SGP4

EPOCH          = 2025-12-08T14:53:29.352768
MEAN_MOTION    = 14.48659951
ECCENTRICITY   = .0824232
INCLINATION    = 56.9533
RA_OF_ASC_NODE = 73.3202
ARG_OF_PERICENTER = 212.8744
MEAN_ANOMALY   = 141.8352

EPHEMERIS_TYPE = 0
CLASSIFICATION_TYPE = U
NORAD_CAT_ID   = 66877
ELEMENT_SET_NO = 999
REV_AT_EPOCH   = 79
BSTAR          = .24383E-3
MEAN_MOTION_DOT = .1149741E-1
MEAN_MOTION_DDOT = .73104E-5

CCSDS_OMM_VERS = 2.0
CREATION_DATE  = 
ORIGINATOR     = 

OBJECT_NAME    = 1998-067XS
OBJECT_ID      = 1998-067XS
CENTER_NAME    = EARTH
REF_FRAME      = TEME
TIME_SYSTEM    = UTC
MEAN_ELEMENT_THEORY = SGP/SGP4

EPOCH          = 2025-12-08T19:08:19.953024
MEAN_MOTION    = 15.50265121
ECCENTRICITY   = .0004022
INCLINATION    = 51.6298
RA_OF_ASC_NODE = 161.9654
ARG_OF_PERICENTER = 184.9972
MEAN_ANOMALY   = 175.0977

EPHEMERIS_TYPE = 0
CLASSIFICATION_TYPE = U
NORAD_CAT_ID   = 66906
ELEMENT_SET_NO = 999
REV_AT_EPOCH   = 100
BSTAR          = .55816E-3
MEAN_MOTION_DOT = .31833E-3
MEAN_MOTION_DDOT = 0

CCSDS_OMM_VERS = 2.0
CREATION_DATE  = 
ORIGINATOR     = 

OBJECT_NAME    = 1998-067XT
OBJECT_ID      = 1998-067XT
CENTER_NAME    = EARTH
REF_FRAME      = TEME
TIME_SYSTEM    = UTC
MEAN_ELEMENT_THEORY = SGP/SGP4

EPOCH          = 2025-12-08T19:06:53.693856
MEAN_MOTION    = 15.50762002
ECCENTRICITY   = .0004972
INCLINATION    = 51.6302
RA_OF_ASC_NODE = 161.9586
ARG_OF_PERICENTER = 204.3216
MEAN_ANOMALY   = 155.7539

EPHEMERIS_TYPE = 0
CLASSIFICATION_TYPE = U
NORAD_CAT_ID   = 66907
ELEMENT_SET_NO = 999
REV_AT_EPOCH   = 100
BSTAR          = .12614E-2
MEAN_MOTION_DOT = .74227E-3
MEAN_MOTION_DDOT = 0

CCSDS_OMM_VERS = 2.0
CREATION_DATE  = 
ORIGINATOR     = 

OBJECT_NAME    = 1998-067XU
OBJECT_ID      = 1998-067XU
CENTER_NAME    = EARTH
REF_FRAME      = TEME
TIME_SYSTEM    = UTC
MEAN_ELEMENT_THEORY = SGP/SGP4

EPOCH          = 2025-12-08T19:06:37.819584
MEAN_MOTION    = 15.50799834
ECCENTRICITY   = .0005158
INCLINATION    = 51.6297
RA_OF_ASC_NODE = 161.9574
ARG_OF_PERICENTER = 203.0343
MEAN_ANOMALY   = 157.0415

EPHEMERIS_TYPE = 0
CLASSIFICATION_TYPE = U
NORAD_CAT_ID   = 66908
ELEMENT_SET_NO = 999
REV_AT_EPOCH   = 100
BSTAR          = .12102E-2
MEAN_MOTION_DOT = .71266E-3
MEAN_MOTION_DDOT = 0

CCSDS_OMM_VERS = 2.0
CREATION_DATE  = 
ORIGINATOR     = 

OBJECT_NAME    = SILVERSAT
OBJECT_ID      = 1998-067XV
CENTER_NAME    = EARTH
REF_FRAME      = TEME
TIME_SYSTEM    = UTC
MEAN_ELEMENT_THEORY = SGP/SGP4

EPOCH          = 2025-12-08T17:33:40.093056
MEAN_MOTION    = 15.50878297
ECCENTRICITY   = .0005012
INCLINATION    = 51.6297
RA_OF_ASC_NODE = 162.2763
ARG_OF_PERICENTER = 204.4469
MEAN_ANOMALY   = 155.6283

EPHEMERIS_TYPE = 0
CLASSIFICATION_TYPE = U
NORAD_CAT_ID   = 66909
ELEMENT_SET_NO = 999
REV_AT_EPOCH   = 99
BSTAR          = .13404E-2
MEAN_MOTION_DOT = .79284E-3
MEAN_MOTION_DDOT = 0

CCSDS_OMM_VERS = 2.0
CREATION_DATE  = 
ORIGINATOR     = 

OBJECT_NAME    = 1998-067XW
OBJECT_ID      = 1998-067XW
CENTER_NAME    = EARTH
REF_FRAME      = TEME
TIME_SYSTEM    = UTC
MEAN_ELEMENT_THEORY = SGP/SGP4

EPOCH          = 2025-12-08T19:04:55.224768
MEAN_MOTION    = 15.51091956
ECCENTRICITY   = .0005915
INCLINATION    = 51.6296
RA_OF_ASC_NODE = 161.9498
ARG_OF_PERICENTER = 189.2693
MEAN_ANOMALY   = 170.8188

EPHEMERIS_TYPE = 0
CLASSIFICATION_TYPE = U
NORAD_CAT_ID   = 66910
ELEMENT_SET_NO = 999
REV_AT_EPOCH   = 100
BSTAR          = .12166E-2
MEAN_MOTION_DOT = .72421E-3
MEAN_MOTION_DDOT = 0

CCSDS_OMM_VERS = 2.0
CREATION_DATE  = 
ORIGINATOR     = 

OBJECT_NAME    = 1998-067XX
OBJECT_ID      = 1998-067XX
CENTER_NAME    = EARTH
REF_FRAME      = TEME
TIME_SYSTEM    = UTC
MEAN_ELEMENT_THEORY = SGP/SGP4

EPOCH          = 2025-12-08T19:04:34.995936
MEAN_MOTION    = 15.51222448
ECCENTRICITY   = .0005755
INCLINATION    = 51.6294
RA_OF_ASC_NODE = 161.9483
ARG_OF_PERICENTER = 189.9158
MEAN_ANOMALY   = 170.1718

EPHEMERIS_TYPE = 0
CLASSIFICATION_TYPE = U
NORAD_CAT_ID   = 66911
ELEMENT_SET_NO = 999
REV_AT_EPOCH   = 99
BSTAR          = .14185E-2
MEAN_MOTION_DOT = .85043E-3
MEAN_MOTION_DDOT = 0

CCSDS_OMM_VERS = 2.0
CREATION_DATE  = 
ORIGINATOR     = 

OBJECT_NAME    = 1998-067XY
OBJECT_ID      = 1998-067XY
CENTER_NAME    = EARTH
REF_FRAME      = TEME
TIME_SYSTEM    = UTC
MEAN_ELEMENT_THEORY = SGP/SGP4

EPOCH          = 2025-12-08T19:07:24.189600
MEAN_MOTION    = 15.50590013
ECCENTRICITY   = .0005041
INCLINATION    = 51.6301
RA_OF_ASC_NODE = 161.9610
ARG_OF_PERICENTER = 202.8515
MEAN_ANOMALY   = 157.2251

EPHEMERIS_TYPE = 0
CLASSIFICATION_TYPE = U
NORAD_CAT_ID   = 66912
ELEMENT_SET_NO = 999
REV_AT_EPOCH   = 99
BSTAR          = .10397E-2
MEAN_MOTION_DOT = .60617E-3
MEAN_MOTION_DDOT = 0

CCSDS_OMM_VERS = 2.0
CREATION_DATE  = 
ORIGINATOR     = 

OBJECT_NAME    = 2025-284A
OBJECT_ID      = 2025-284A
CENTER_NAME    = EARTH
REF_FRAME      = TEME
TIME_SYSTEM    = UTC
MEAN_ELEMENT_THEORY = SGP/SGP4

EPOCH          = 2025-12-08T20:11:47.230368
MEAN_MOTION    = 15.18803631
ECCENTRICITY   = .0008026
INCLINATION    = 80.4052
RA_OF_ASC_NODE = 134.7059
ARG_OF_PERICENTER = 259.4050
MEAN_ANOMALY   = 100.6273

EPHEMERIS_TYPE = 0
CLASSIFICATION_TYPE = U
NORAD_CAT_ID   = 66913
ELEMENT_SET_NO = 999
REV_AT_EPOCH   = 53
BSTAR          = .66264E-3
MEAN_MOTION_DOT = .13828E-3
MEAN_MOTION_DDOT = 0

